SENTINEL-6              
1 46984U 20086A   24170.48086704 -.00000024  00000+0  16269-3 0  9991
2 46984  66.0394 208.5832 0007934 270.2378  89.7727 12.80928914166996
